start=new Date('2022-03-09T00:00:00.000Z').valueOf();
sats=[{"SITE":"AFETR","OBJECT_TYPE":"PAYLOAD","REF_FRAME":"TEME","TLE_LINE1":"1 48308U 21036AJ  22067.61400516 -.00001858  00000-0 -10589-3 0  9995","TIME_SYSTEM":"UTC","RCS_SIZE":"LARGE","RA_OF_ASC_NODE":"175.1359","FILE":"3351330","INCLINATION":"53.0536","MEAN_ANOMALY":"294.8312","PERIOD":"95.593","MEAN_ELEMENT_THEORY":"SGP4","ARG_OF_PERICENTER":"65.2817","ECCENTRICITY":"0.00013400","GP_ID":"198274404","MEAN_MOTION":"15.06388967","MEAN_MOTION_DDOT":"0.0000000000000","CENTER_NAME":"EARTH","TLE_LINE2":"2 48308  53.0536 175.1359 0001340  65.2817 294.8312 15.06388967 47806","NORAD_CAT_ID":"48308","MEAN_MOTION_DOT":"-0.00001858","CLASSIFICATION_TYPE":"U","BSTAR":"-0.00010589000000","ELEMENT_SET_NO":"999","OBJECT_ID":"2021-036AJ","LAUNCH_DATE":"2021-04-29","SEMIMAJOR_AXIS":"6925.382","EPOCH":"2022-03-08T14:44:10.045824","COUNTRY_CODE":"US","EPHEMERIS_TYPE":"0","OBJECT_NAME":"STARLINK-2532","DECAY_DATE":null,"APOAPSIS":"548.175","PERIAPSIS":"546.319","REV_AT_EPOCH":"4780"},{"OBJECT_ID":"2021-036AK","ELEMENT_SET_NO":"999","SEMIMAJOR_AXIS":"6925.384","EPOCH":"2022-03-08T14:38:51.237600","LAUNCH_DATE":"2021-04-29","COUNTRY_CODE":"US","EPHEMERIS_TYPE":"0","OBJECT_NAME":"STARLINK-2517","DECAY_DATE":null,"APOAPSIS":"548.193","PERIAPSIS":"546.304","REV_AT_EPOCH":"4780","OBJECT_TYPE":"PAYLOAD","SITE":"AFETR","TLE_LINE1":"1 48309U 21036AK  22067.61031525 -.00002031  00000-0 -11756-3 0  9997","REF_FRAME":"TEME","TIME_SYSTEM":"UTC","RCS_SIZE":"LARGE","RA_OF_ASC_NODE":"175.1553","FILE":"3351330","INCLINATION":"53.0546","MEAN_ANOMALY":"284.3242","PERIOD":"95.593","ECCENTRICITY":"0.00013640","GP_ID":"198273152","MEAN_MOTION":"15.06388573","MEAN_ELEMENT_THEORY":"SGP4","ARG_OF_PERICENTER":"75.7898","MEAN_MOTION_DDOT":"0.0000000000000","BSTAR":"-0.00011756000000","CLASSIFICATION_TYPE":"U","TLE_LINE2":"2 48309  53.0546 175.1553 0001364  75.7898 284.3242 15.06388573 47804","CENTER_NAME":"EARTH","NORAD_CAT_ID":"48309","MEAN_MOTION_DOT":"-0.00002031"},{"RCS_SIZE":"LARGE","TIME_SYSTEM":"UTC","RA_OF_ASC_NODE":"174.2638","FILE":"3351330","INCLINATION":"53.0551","SITE":"AFETR","OBJECT_TYPE":"PAYLOAD","REF_FRAME":"TEME","TLE_LINE1":"1 48310U 21036AL  22067.80566146 -.00002376  00000-0 -14071-3 0  9997","MEAN_MOTION_DDOT":"0.0000000000000","CENTER_NAME":"EARTH","TLE_LINE2":"2 48310  53.0551 174.2638 0001226  74.2208 285.8916 15.06390353 47838","NORAD_CAT_ID":"48310","MEAN_MOTION_DOT":"-0.00002376","CLASSIFICATION_TYPE":"U","BSTAR":"-0.00014071000000","MEAN_ANOMALY":"285.8916","PERIOD":"95.593","MEAN_ELEMENT_THEORY":"SGP4","ARG_OF_PERICENTER":"74.2208","ECCENTRICITY":"0.00012260","GP_ID":"198273402","MEAN_MOTION":"15.06390353","COUNTRY_CODE":"US","EPHEMERIS_TYPE":"0","ELEMENT_SET_NO":"999","OBJECT_ID":"2021-036AL","LAUNCH_DATE":"2021-04-29","SEMIMAJOR_AXIS":"6925.378","EPOCH":"2022-03-08T19:20:09.150144","REV_AT_EPOCH":"4783","PERIAPSIS":"546.394","OBJECT_NAME":"STARLINK-2536","DECAY_DATE":null,"APOAPSIS":"548.092"},{"REV_AT_EPOCH":"4779","PERIAPSIS":"546.321","OBJECT_NAME":"STARLINK-2534","APOAPSIS":"548.174","DECAY_DATE":null,"COUNTRY_CODE":"US","EPHEMERIS_TYPE":"0","OBJECT_ID":"2021-036AM","ELEMENT_SET_NO":"999","EPOCH":"2022-03-08T12:52:41.802816","SEMIMAJOR_AXIS":"6925.382","LAUNCH_DATE":"2021-04-29","MEAN_MOTION_DDOT":"0.0000000000000","CLASSIFICATION_TYPE":"U","BSTAR":"-0.00008590100000","NORAD_CAT_ID":"48311","MEAN_MOTION_DOT":"-0.00001560","CENTER_NAME":"EARTH","TLE_LINE2":"2 48311  53.0535 175.4860 0001338  71.9814 288.1320 15.06388966 47799","MEAN_ANOMALY":"288.1320","PERIOD":"95.593","MEAN_MOTION":"15.06388966","GP_ID":"198240207","ECCENTRICITY":"0.00013380","ARG_OF_PERICENTER":"71.9814","MEAN_ELEMENT_THEORY":"SGP4","RA_OF_ASC_NODE":"175.4860","RCS_SIZE":"LARGE","TIME_SYSTEM":"UTC","INCLINATION":"53.0535","FILE":"3350976","OBJECT_TYPE":"PAYLOAD","SITE":"AFETR","TLE_LINE1":"1 48311U 21036AM  22067.53659494 -.00001560  00000-0 -85901-4 0  9992","REF_FRAME":"TEME"},{"ELEMENT_SET_NO":"999","OBJECT_ID":"2021-036AN","LAUNCH_DATE":"2021-04-29","EPOCH":"2022-03-08T14:22:54.086304","SEMIMAJOR_AXIS":"6925.350","COUNTRY_CODE":"US","EPHEMERIS_TYPE":"0","OBJECT_NAME":"STARLINK-2061","APOAPSIS":"548.303","DECAY_DATE":null,"REV_AT_EPOCH":"4844","PERIAPSIS":"546.127","OBJECT_TYPE":"PAYLOAD","SITE":"AFETR","REF_FRAME":"TEME","TLE_LINE1":"1 48312U 21036AN  22067.59923711  .00000206  00000-0  32754-4 0  9997","RA_OF_ASC_NODE":"175.2012","RCS_SIZE":"LARGE","TIME_SYSTEM":"UTC","INCLINATION":"53.0545","FILE":"3351055","MEAN_ANOMALY":"301.9344","PERIOD":"95.592","ARG_OF_PERICENTER":"58.1797","MEAN_ELEMENT_THEORY":"SGP4","MEAN_MOTION":"15.06399611","ECCENTRICITY":"0.00015710","GP_ID":"198245346","MEAN_MOTION_DDOT":"0.0000000000000","NORAD_CAT_ID":"48312","MEAN_MOTION_DOT":"0.00000206","TLE_LINE2":"2 48312  53.0545 175.2012 0001571  58.1797 301.9344 15.06399611 48446","CENTER_NAME":"EARTH","BSTAR":"0.00003275400000","CLASSIFICATION_TYPE":"U"},{"ARG_OF_PERICENTER":"63.3447","MEAN_ELEMENT_THEORY":"SGP4","MEAN_MOTION":"15.06390395","ECCENTRICITY":"0.00015670","GP_ID":"198239706","PERIOD":"95.593","MEAN_ANOMALY":"296.7702","NORAD_CAT_ID":"48313","MEAN_MOTION_DOT":"-0.00001840","TLE_LINE2":"2 48313  53.0533 175.2092 0001567  63.3447 296.7702 15.06390395 47793","CENTER_NAME":"EARTH","CLASSIFICATION_TYPE":"U","BSTAR":"-0.00010466000000","MEAN_MOTION_DDOT":"0.0000000000000","REF_FRAME":"TEME","TLE_LINE1":"1 48313U 21036AP  22067.59557153 -.00001840  00000-0 -10466-3 0  9993","SITE":"AFETR","OBJECT_TYPE":"PAYLOAD","INCLINATION":"53.0533","FILE":"3350976","RA_OF_ASC_NODE":"175.2092","TIME_SYSTEM":"UTC","RCS_SIZE":"LARGE","APOAPSIS":"548.328","DECAY_DATE":null,"OBJECT_NAME":"STARLINK-2541","REV_AT_EPOCH":"4779","PERIAPSIS":"546.158","LAUNCH_DATE":"2021-04-29","EPOCH":"2022-03-08T14:17:37.380192","SEMIMAJOR_AXIS":"6925.378","ELEMENT_SET_NO":"999","OBJECT_ID":"2021-036AP","EPHEMERIS_TYPE":"0","COUNTRY_CODE":"US"},{"NORAD_CAT_ID":"48314","MEAN_MOTION_DOT":"-0.00004382","CENTER_NAME":"EARTH","TLE_LINE2":"2 48314  53.0535 175.2387 0001423  74.5902 285.5244 15.06372574 48443","BSTAR":"-0.00027570000000","CLASSIFICATION_TYPE":"U","MEAN_MOTION_DDOT":"0.0000000000000","ARG_OF_PERICENTER":"74.5902","MEAN_ELEMENT_THEORY":"SGP4","MEAN_MOTION":"15.06372574","GP_ID":"198250441","ECCENTRICITY":"0.00014230","MEAN_ANOMALY":"285.5244","PERIOD":"95.594","INCLINATION":"53.0535","FILE":"3351255","RA_OF_ASC_NODE":"175.2387","RCS_SIZE":"LARGE","TIME_SYSTEM":"UTC","REF_FRAME":"TEME","TLE_LINE1":"1 48314U 21036AQ  22067.59188926 -.00004382  00000-0 -27570-3 0  9990","OBJECT_TYPE":"PAYLOAD","SITE":"AFETR","REV_AT_EPOCH":"4844","PERIAPSIS":"546.312","APOAPSIS":"548.283","DECAY_DATE":null,"OBJECT_NAME":"STARLINK-2549","EPHEMERIS_TYPE":"0","COUNTRY_CODE":"US","LAUNCH_DATE":"2021-04-29","EPOCH":"2022-03-08T14:12:19.232064","SEMIMAJOR_AXIS":"6925.433","ELEMENT_SET_NO":"999","OBJECT_ID":"2021-036AQ"},{"OBJECT_ID":"2021-036AR","ELEMENT_SET_NO":"999","EPOCH":"2022-03-08T14:07:00.444576","SEMIMAJOR_AXIS":"6925.400","LAUNCH_DATE":"2021-04-29","COUNTRY_CODE":"US","EPHEMERIS_TYPE":"0","OBJECT_NAME":"STARLINK-2506","APOAPSIS":"548.248","DECAY_DATE":null,"REV_AT_EPOCH":"4779","PERIAPSIS":"546.282","OBJECT_TYPE":"PAYLOAD","SITE":"AFETR","TLE_LINE1":"1 48315U 21036AR  22067.58819959 -.00000997  00000-0 -48048-4 0  9999","REF_FRAME":"TEME","RA_OF_ASC_NODE":"175.2541","TIME_SYSTEM":"UTC","RCS_SIZE":"LARGE","INCLINATION":"53.0536","FILE":"3350976","MEAN_ANOMALY":"294.4946","PERIOD":"95.593","MEAN_MOTION":"15.06383239","GP_ID":"198240708","ECCENTRICITY":"0.00014190","ARG_OF_PERICENTER":"65.6191","MEAN_ELEMENT_THEORY":"SGP4","MEAN_MOTION_DDOT":"0.0000000000000","CLASSIFICATION_TYPE":"U","BSTAR":"-0.00004804800000","NORAD_CAT_ID":"48315","MEAN_MOTION_DOT":"-0.00000997","CENTER_NAME":"EARTH","TLE_LINE2":"2 48315  53.0536 175.2541 0001419  65.6191 294.4946 15.06383239 47798"},{"ECCENTRICITY":"0.00014590","GP_ID":"198274405","MEAN_MOTION":"15.06391933","MEAN_ELEMENT_THEORY":"SGP4","ARG_OF_PERICENTER":"64.2201","MEAN_ANOMALY":"295.8939","PERIOD":"95.593","BSTAR":"-0.00006087200000","CLASSIFICATION_TYPE":"U","CENTER_NAME":"EARTH","TLE_LINE2":"2 48316  53.0535 174.9740 0001459  64.2201 295.8939 15.06391933 47805","NORAD_CAT_ID":"48316","MEAN_MOTION_DOT":"-0.00001188","MEAN_MOTION_DDOT":"0.0000000000000","TLE_LINE1":"1 48316U 21036AS  22067.65085754 -.00001188  00000-0 -60872-4 0  9998","REF_FRAME":"TEME","SITE":"AFETR","OBJECT_TYPE":"PAYLOAD","FILE":"3351330","INCLINATION":"53.0535","TIME_SYSTEM":"UTC","RCS_SIZE":"LARGE","RA_OF_ASC_NODE":"174.9740","DECAY_DATE":null,"APOAPSIS":"548.249","OBJECT_NAME":"STARLINK-2507","PERIAPSIS":"546.228","REV_AT_EPOCH":"4780","SEMIMAJOR_AXIS":"6925.373","EPOCH":"2022-03-08T15:37:14.091456","LAUNCH_DATE":"2021-04-29","OBJECT_ID":"2021-036AS","ELEMENT_SET_NO":"999","EPHEMERIS_TYPE":"0","COUNTRY_CODE":"US"},{"OBJECT_NAME":"STARLINK-2513","DECAY_DATE":null,"APOAPSIS":"548.333","PERIAPSIS":"546.145","REV_AT_EPOCH":"4781","ELEMENT_SET_NO":"999","OBJECT_ID":"2021-036AT","LAUNCH_DATE":"2021-04-29","SEMIMAJOR_AXIS":"6925.374","EPOCH":"2022-03-08T17:07:27.744384","COUNTRY_CODE":"US","EPHEMERIS_TYPE":"0","PERIOD":"95.593","MEAN_ANOMALY":"289.9815","MEAN_ELEMENT_THEORY":"SGP4","ARG_OF_PERICENTER":"70.1344","ECCENTRICITY":"0.00015800","GP_ID":"198273153","MEAN_MOTION":"15.06391741","MEAN_MOTION_DDOT":"0.0000000000000","CENTER_NAME":"EARTH","TLE_LINE2":"2 48317  53.0554 174.6949 0001580  70.1344 289.9815 15.06391741 47819","NORAD_CAT_ID":"48317","MEAN_MOTION_DOT":"-0.00000205","CLASSIFICATION_TYPE":"U","BSTAR":"0.00000516520000","SITE":"AFETR","OBJECT_TYPE":"PAYLOAD","REF_FRAME":"TEME","TLE_LINE1":"1 48317U 21036AT  22067.71351556 -.00000205  00000-0  51652-5 0  9997","RCS_SIZE":"LARGE","TIME_SYSTEM":"UTC","RA_OF_ASC_NODE":"174.6949","FILE":"3351330","INCLINATION":"53.0554"}];
